{
  "type": "FeatureCollection",
  "features": [
    {
      "type": "Feature",
      "properties": {
        "norad_id": 30477,
        "name": "FENGYUN 1C DEB",
        "group": "fengyun-1c-debris",
        "lat": 48.19903536047182,
        "lon": -107.03957371669715,
        "alt_km": 1481.2247100389368,
        "timestamp": "2025-12-04T10:51:50.382115+00:00",
        "meta_object_name": "FENGYUN 1C DEB",
        "meta_object_id": "1999-025AGQ",
        "meta_epoch": "2025-12-03T21:45:23.531904",
        "meta_mean_motion": 13.23770545,
        "meta_eccentricity": 0.0431472,
        "meta_inclination": 99.4254,
        "meta_ra_of_asc_node": 61.7592,
        "meta_arg_of_pericenter": 298.2366,
        "meta_mean_anomaly": 112.4586,
        "meta_ephemeris_type": 0,
        "meta_classification_type": "U",
        "meta_norad_cat_id": 30477,
        "meta_element_set_no": 999,
        "meta_rev_at_epoch": 90602,
        "meta_bstar": 0.0038132819,
        "meta_mean_motion_dot": 2.623e-05,
        "meta_mean_motion_ddot": 0,
        "tle_line1": "1 30477U 99025AGQ 25337.90652236  .00002623  00000+0  38133-2 0  9991",
        "tle_line2": "2 30477  99.4254  61.7592 0431472 298.2366 112.4586 13.23770545906024"
      },
      "geometry": {
        "type": "Point",
        "coordinates": [
          -107.03957371669715,
          48.19903536047182
        ]
      }
    },
    {
      "type": "Feature",
      "properties": {
        "norad_id": 30480,
        "name": "FENGYUN 1C DEB",
        "group": "fengyun-1c-debris",
        "lat": -12.515134470830144,
        "lon": 171.8335332736066,
        "alt_km": 673.9410648362718,
        "timestamp": "2025-12-04T10:51:50.382126+00:00",
        "meta_object_name": "FENGYUN 1C DEB",
        "meta_object_id": "1999-025AGS",
        "meta_epoch": "2025-12-03T19:42:26.018208",
        "meta_mean_motion": 14.3358095,
        "meta_eccentricity": 0.01659249,
        "meta_inclination": 98.2244,
        "meta_ra_of_asc_node": 353.0727,
        "meta_arg_of_pericenter": 172.2205,
        "meta_mean_anomaly": 2.2146,
        "meta_ephemeris_type": 0,
        "meta_classification_type": "U",
        "meta_norad_cat_id": 30480,
        "meta_element_set_no": 999,
        "meta_rev_at_epoch": 98540,
        "meta_bstar": 0.00039522742,
        "meta_mean_motion_dot": 1.232e-05,
        "meta_mean_motion_ddot": 0,
        "tle_line1": "1 30480U 99025AGS 25337.82113447  .00001232  00000+0  39523-3 0  9992",
        "tle_line2": "2 30480  98.2244 353.0727 0165924 172.2205   2.2146 14.33580950985408"
      },
      "geometry": {
        "type": "Point",
        "coordinates": [
          171.8335332736066,
          -12.515134470830144
        ]
      }
    },
    {
      "type": "Feature",
      "properties": {
        "norad_id": 30481,
        "name": "FENGYUN 1C DEB",
        "group": "fengyun-1c-debris",
        "lat": 38.169513405092495,
        "lon": -177.4006679182182,
        "alt_km": 886.3541677207386,
        "timestamp": "2025-12-04T10:51:50.382136+00:00",
        "meta_object_name": "FENGYUN 1C DEB",
        "meta_object_id": "1999-025AGT",
        "meta_epoch": "2025-12-04T00:25:48.016704",
        "meta_mean_motion": 14.38975646,
        "meta_eccentricity": 0.02231979,
        "meta_inclination": 98.3372,
        "meta_ra_of_asc_node": 355.5572,
        "meta_arg_of_pericenter": 286.3518,
        "meta_mean_anomaly": 125.606,
        "meta_ephemeris_type": 0,
        "meta_classification_type": "U",
        "meta_norad_cat_id": 30481,
        "meta_element_set_no": 999,
        "meta_rev_at_epoch": 98358,
        "meta_bstar": 0.001134666,
        "meta_mean_motion_dot": 4.634e-05,
        "meta_mean_motion_ddot": 0,
        "tle_line1": "1 30481U 99025AGT 25338.01791686  .00004634  00000+0  11347-2 0  9994",
        "tle_line2": "2 30481  98.3372 355.5572 0223197 286.3518 125.6060 14.38975646983585"
      },
      "geometry": {
        "type": "Point",
        "coordinates": [
          -177.4006679182182,
          38.169513405092495
        ]
      }
    },
    {
      "type": "Feature",
      "properties": {
        "norad_id": 30486,
        "name": "FENGYUN 1C DEB",
        "group": "fengyun-1c-debris",
        "lat": -56.16619214050869,
        "lon": 23.512206485025033,
        "alt_km": 307.55310730876863,
        "timestamp": "2025-12-04T10:51:50.382146+00:00",
        "meta_object_name": "FENGYUN 1C DEB",
        "meta_object_id": "1999-025AGY",
        "meta_epoch": "2025-12-02T13:44:42.280512",
        "meta_mean_motion": 15.87023025,
        "meta_eccentricity": 0.00187191,
        "meta_inclination": 98.805,
        "meta_ra_of_asc_node": 7.713,
        "meta_arg_of_pericenter": 230.211,
        "meta_mean_anomaly": 129.7509,
        "meta_ephemeris_type": 0,
        "meta_classification_type": "U",
        "meta_norad_cat_id": 30486,
        "meta_element_set_no": 999,
        "meta_rev_at_epoch": 1592,
        "meta_bstar": 0.0025946463,
        "meta_mean_motion_dot": 0.00673876,
        "meta_mean_motion_ddot": 0.0001747163,
        "tle_line1": "1 30486U 99025AGY 25336.57271158  .00673876  17472-3  25946-2 0  9990",
        "tle_line2": "2 30486  98.8050   7.7130 0018719 230.2110 129.7509 15.87023025 15929"
      },
      "geometry": {
        "type": "Point",
        "coordinates": [
          23.512206485025033,
          -56.16619214050869
        ]
      }
    },
    {
      "type": "Feature",
      "properties": {
        "norad_id": 30489,
        "name": "FENGYUN 1C DEB",
        "group": "fengyun-1c-debris",
        "lat": -31.090864889502203,
        "lon": -1.0922725634214165,
        "alt_km": 767.5956435255684,
        "timestamp": "2025-12-04T10:51:50.382159+00:00",
        "meta_object_name": "FENGYUN 1C DEB",
        "meta_object_id": "1999-025AHB",
        "meta_epoch": "2025-12-03T12:00:47.743776",
        "meta_mean_motion": 14.15801844,
        "meta_eccentricity": 0.0138959,
        "meta_inclination": 98.4693,
        "meta_ra_of_asc_node": 352.8475,
        "meta_arg_of_pericenter": 291.8664,
        "meta_mean_anomaly": 225.6861,
        "meta_ephemeris_type": 0,
        "meta_classification_type": "U",
        "meta_norad_cat_id": 30489,
        "meta_element_set_no": 999,
        "meta_rev_at_epoch": 97256,
        "meta_bstar": 0.00041111807,
        "meta_mean_motion_dot": 8.45e-06,
        "meta_mean_motion_ddot": 0,
        "tle_line1": "1 30489U 99025AHB 25337.50055259  .00000845  00000+0  41112-3 0  9998",
        "tle_line2": "2 30489  98.4693 352.8475 0138959 291.8664 225.6861 14.15801844972565"
      },
      "geometry": {
        "type": "Point",
        "coordinates": [
          -1.0922725634214165,
          -31.090864889502203
        ]
      }
    },
    {
      "type": "Feature",
      "properties": {
        "norad_id": 30490,
        "name": "FENGYUN 1C DEB",
        "group": "fengyun-1c-debris",
        "lat": 46.05383358092448,
        "lon": 100.39741125485764,
        "alt_km": 492.7272804889881,
        "timestamp": "2025-12-04T10:51:50.382170+00:00",
        "meta_object_name": "FENGYUN 1C DEB",
        "meta_object_id": "1999-025AHC",
        "meta_epoch": "2025-12-03T20:29:32.281440",
        "meta_mean_motion": 15.2559464,
        "meta_eccentricity": 0.00528648,
        "meta_inclination": 98.3351,
        "meta_ra_of_asc_node": 108.4796,
        "meta_arg_of_pericenter": 152.2959,
        "meta_mean_anomaly": 208.1111,
        "meta_ephemeris_type": 0,
        "meta_classification_type": "U",
        "meta_norad_cat_id": 30490,
        "meta_element_set_no": 999,
        "meta_rev_at_epoch": 99360,
        "meta_bstar": 0.0060445697,
        "meta_mean_motion_dot": 0.0016291,
        "meta_mean_motion_ddot": 0,
        "tle_line1": "1 30490U 99025AHC 25337.85384585  .00162910  00000+0  60446-2 0  9997",
        "tle_line2": "2 30490  98.3351 108.4796 0052864 152.2959 208.1111 15.25594640993602"
      },
      "geometry": {
        "type": "Point",
        "coordinates": [
          100.39741125485764,
          46.05383358092448
        ]
      }
    },
    {
      "type": "Feature",
      "properties": {
        "norad_id": 30492,
        "name": "FENGYUN 1C DEB",
        "group": "fengyun-1c-debris",
        "lat": 77.57814262616812,
        "lon": -91.19582698761664,
        "alt_km": 645.5615269539749,
        "timestamp": "2025-12-04T10:51:50.382180+00:00",
        "meta_object_name": "FENGYUN 1C DEB",
        "meta_object_id": "1999-025AHE",
        "meta_epoch": "2025-12-03T17:55:11.029152",
        "meta_mean_motion": 14.51455273,
        "meta_eccentricity": 0.00956694,
        "meta_inclination": 102.3261,
        "meta_ra_of_asc_node": 350.8449,
        "meta_arg_of_pericenter": 87.1916,
        "meta_mean_anomaly": 274.0209,
        "meta_ephemeris_type": 0,
        "meta_classification_type": "U",
        "meta_norad_cat_id": 30492,
        "meta_element_set_no": 999,
        "meta_rev_at_epoch": 96764,
        "meta_bstar": 0.004507028,
        "meta_mean_motion_dot": 0.00019076,
        "meta_mean_motion_ddot": 0,
        "tle_line1": "1 30492U 99025AHE 25337.74665543  .00019076  00000+0  45070-2 0  9993",
        "tle_line2": "2 30492 102.3261 350.8449 0095669  87.1916 274.0209 14.51455273967648"
      },
      "geometry": {
        "type": "Point",
        "coordinates": [
          -91.19582698761664,
          77.57814262616812
        ]
      }
    }
  ]
}